[{"OBJECT_NAME":"STARLINK-31958","OBJECT_ID":"2024-106C","EPOCH":"2026-03-09T01:20:23.651520","MEAN_MOTION":15.27599767,"ECCENTRICITY":0.00028317,"INCLINATION":43.0014,"RA_OF_ASC_NODE":321.5884,"ARG_OF_PERICENTER":258.5288,"MEAN_ANOMALY":101.5246,"EPHEMERIS_TYPE":0,"CLASSIFICATION_TYPE":"U","NORAD_CAT_ID":59924,"ELEMENT_SET_NO":999,"REV_AT_EPOCH":10059,"BSTAR":4.0548466e-5,"MEAN_MOTION_DOT":8.54e-6,"MEAN_MOTION_DDOT":0},{"OBJECT_NAME":"FLOCK 4G-29","OBJECT_ID":"2025-009AK","EPOCH":"2026-03-09T19:33:04.927968","MEAN_MOTION":15.27382318,"ECCENTRICITY":0.00013664,"INCLINATION":97.4058,"RA_OF_ASC_NODE":151.3683,"ARG_OF_PERICENTER":288.0502,"MEAN_ANOMALY":72.0588,"EPHEMERIS_TYPE":0,"CLASSIFICATION_TYPE":"U","NORAD_CAT_ID":62642,"ELEMENT_SET_NO":999,"REV_AT_EPOCH":6372,"BSTAR":0.0004183135,"MEAN_MOTION_DOT":0.00011147,"MEAN_MOTION_DDOT":0}]
